{
    "version": 0.6,
    "generator": "Overpass API 0.7.59 e21c39fe",
    "osm3s": {
      "timestamp_osm_base": "2022-12-27T17:01:05Z",
      "copyright": "The data included in this document is from www.openstreetmap.org. The data is made available under ODbL."
    },
    "elements": [
  
  {
    "type": "way",
    "id": 23550368,
    "nodes": [
      255010184,
      255010201,
      255010209,
      255010203,
      255010214,
      255010211,
      255010202,
      255010188,
      255010208,
      255010205,
      6543542556,
      255010206,
      255010210,
      255010212,
      255010199,
      255010200,
      1669404531,
      255010213,
      255010204,
      1669404539,
      255010184
    ],
    "tags": {
      "addr:city": "Санкт-Петербург",
      "addr:country": "RU",
      "addr:housenumber": "4",
      "addr:street": "Торфяная дорога",
      "building": "train_station",
      "building:levels": "2"
    }
  },
  {
    "type": "way",
    "id": 28219497,
    "nodes": [
      309943038,
      4202620280,
      2610053429,
      2610053427,
      309943039,
      2610053418,
      309943041,
      2610053423,
      309943042,
      2893571788,
      2893571791,
      309943043,
      1121507729,
      2610053446,
      1727535157,
      2610053454,
      309943044,
      309943046,
      2610053463,
      2610053465,
      309943047,
      309943048,
      2610053436,
      309943060,
      309943038
    ],
    "tags": {
      "addr:city": "Санкт-Петербург",
      "addr:country": "RU",
      "addr:housenumber": "26",
      "addr:street": "улица Дыбенко",
      "building": "train_station",
      "building:levels": "1"
    }
  },
  {
    "type": "way",
    "id": 28667708,
    "nodes": [
      315053072,
      315053073,
      1478166592,
      1478166588,
      1478166584,
      1672243330,
      1672243329,
      1672243326,
      7415756106,
      1672243322,
      7415756107,
      1672243321,
      1672243320,
      1672243319,
      1672243318,
      1672243305,
      1672243303,
      1672243301,
      1672243310,
      1478166549,
      1478166551,
      1478166561,
      1478166564,
      1478166567,
      1478166571,
      1478166577,
      1672243333,
      1478166586,
      315053072
    ],
    "tags": {
      "addr:housenumber": "188М",
      "addr:street": "Московский проспект",
      "building": "train_station",
      "building:levels": "1",
      "roof:shape": "onion"
    }
  },
  {
    "type": "way",
    "id": 29072707,
    "nodes": [
      319795197,
      1172985008,
      836617905,
      319795198,
      319795200,
      1172985005,
      1179673927,
      319795202,
      319795197
    ],
    "tags": {
      "addr:housenumber": "69",
      "addr:postcode": "195112",
      "addr:street": "Заневский проспект",
      "building": "train_station",
      "building:levels": "2"
    }
  },
  {
    "type": "way",
    "id": 31827873,
    "nodes": [
      356370497,
      356370499,
      3205728035,
      356370502,
      3205728033,
      356370503,
      1140373160,
      356370497
    ],
    "tags": {
      "addr:city": "Санкт-Петербург",
      "addr:country": "RU",
      "addr:housenumber": "3",
      "addr:street": "Сердобольская улица",
      "architect": "Гранхольм, Бруно Фердинанд",
      "architect:wikidata": "Q993300",
      "building": "train_station",
      "building:architecture": "art_nouveau",
      "building:levels": "3",
      "heritage": "4",
      "heritage:website": "https://kgiop.gov.spb.ru/uchet/list_objects/",
      "name": "Ланская",
      "name:en": "Lanskaya",
      "name:fi": "Lanskaja",
      "start_date": "1910",
      "wikidata": "Q4254005",
      "wikipedia": "ru:Ланская (платформа)"
    }
  },
  {
    "type": "way",
    "id": 33004669,
    "nodes": [
      4535624446,
      4535624427,
      4535624466,
      4535624463,
      4535624418,
      4535624428,
      4535624438,
      4535624447,
      4535624391,
      4535624445,
      4535624425,
      4535624406,
      4535624442,
      4535624441,
      4535624444,
      4535624431,
      4535624465,
      4535624409,
      4535624449,
      4535624426,
      4535624452,
      6130530999,
      6130531002,
      4535624408,
      4535624470,
      4535624437,
      4535624454,
      4535624462,
      4535624405,
      4535624453,
      10176027708,
      10176027685,
      10176027699,
      4535624446
    ],
    "tags": {
      "addr:city": "Санкт-Петербург",
      "addr:country": "RU",
      "addr:housenumber": "73",
      "addr:postcode": "195213",
      "addr:street": "Заневский проспект",
      "building": "train_station",
      "building:levels": "5",
      "building:min_level": "1",
      "fixme": "теги после разделения",
      "layer": "1",
      "name": "Ладожский вокзал",
      "name:de": "Ladoga-Bahnhof",
      "name:fi": "Laatokan rautatieasema",
      "name:ru": "Ладожский вокзал",
      "start_date": "2003",
      "website": "http://ladogsky.dzvr.ru/",
      "wikidata": "Q1800041",
      "wikipedia": "ru:Ладожский вокзал"
    }
  },
  {
    "type": "way",
    "id": 37420675,
    "nodes": [
      437465578,
      437465577,
      9872497198,
      437465576,
      437465575,
      1667884608,
      1667884617,
      437465578
    ],
    "tags": {
      "building": "train_station",
      "height": "7"
    }
  },
  {
    "type": "way",
    "id": 42440931,
    "nodes": [
      563697681,
      529854071,
      7816815236,
      529854070,
      7816815235,
      563697686,
      563697694,
      563697692,
      563697688,
      529854069,
      2079490033,
      529854072,
      563697695,
      4221182329,
      563697696,
      2079490041,
      563697684,
      563697681
    ],
    "tags": {
      "addr:housenumber": "69",
      "addr:street": "улица Бабушкина",
      "building": "train_station",
      "building:levels": "1"
    }
  },
  {
    "type": "way",
    "id": 50064533,
    "nodes": [
      635814389,
      635814390,
      353927287,
      3735086126,
      3736590224,
      3736590223,
      635814391,
      635814392,
      635814393,
      635814394,
      635814395,
      635814396,
      3736590221,
      3736590222,
      1933529453,
      635814389
    ],
    "tags": {
      "addr:city": "Санкт-Петербург",
      "addr:country": "RU",
      "addr:housenumber": "12",
      "addr:street": "Большая Зеленина улица",
      "building": "train_station",
      "building:levels": "2",
      "height": "5"
    }
  },
  {
    "type": "way",
    "id": 53012880,
    "nodes": [
      671456612,
      671456613,
      671456617,
      3733594071,
      671456618,
      671456619,
      671456620,
      671456609,
      671456611,
      2702357255,
      671456615,
      671456616,
      1449261346,
      671456612
    ],
    "tags": {
      "addr:city": "Санкт-Петербург",
      "addr:housenumber": "144 к2",
      "addr:street": "Ленинский проспект",
      "building": "train_station",
      "building:levels": "2",
      "roof:shape": "flat"
    }
  },
  {
    "type": "way",
    "id": 72607950,
    "nodes": [
      861722647,
      5792808481,
      5792808480,
      861722439,
      861722565,
      861722539,
      861722647
    ],
    "tags": {
      "building": "train_station"
    }
  },
  {
    "type": "way",
    "id": 82111126,
    "nodes": [
      956207785,
      956207731,
      956207591,
      4015114686,
      956207755,
      956207785
    ],
    "tags": {
      "addr:city": "Санкт-Петербург",
      "addr:country": "RU",
      "addr:housenumber": "14 к2 литБ",
      "addr:street": "Богатырский проспект",
      "building": "train_station",
      "building:levels": "4",
      "name": "торговый комплекс «Богатырский»",
      "shop": "mall",
      "toilets": "yes"
    }
  },
  {
    "type": "way",
    "id": 85416499,
    "nodes": [
      990212247,
      2562721723,
      946973293,
      990212250,
      990212261,
      990212238,
      990212226,
      990212235,
      990212258,
      990212236,
      2562721721,
      2562721722,
      990212265,
      990212257,
      990212233,
      990212275,
      990212252,
      990212227,
      990212254,
      990212247
    ],
    "tags": {
      "addr:city": "Санкт-Петербург",
      "addr:country": "RU",
      "addr:housenumber": "6",
      "addr:place": "Александровский парк",
      "addr:postcode": "197046",
      "atm": "yes",
      "building": "train_station",
      "building:levels": "1",
      "roof:shape": "dome",
      "source": "rgis"
    }
  },
  {
    "type": "way",
    "id": 86323148,
    "nodes": [
      1002512084,
      1002512030,
      1002512065,
      1002512081,
      1002512062,
      4155969970,
      1002512084
    ],
    "tags": {
      "building": "train_station",
      "disused:railway": "yes"
    }
  },
  {
    "type": "way",
    "id": 98181169,
    "nodes": [
      1135827760,
      1690356463,
      1690356469,
      1690356484,
      1129339026,
      3804910520,
      1579905725,
      1579905735,
      1579905739,
      1579905747,
      1579905753,
      1579905754,
      1579905750,
      1690356661,
      1579905700,
      1690356632,
      1690356630,
      1690356597,
      1690356555,
      1690356569,
      1579905698,
      1690356487,
      1690356480,
      1579905659,
      1579905654,
      1579905646,
      1579905656,
      1579905663,
      1579905665,
      1135827760
    ],
    "tags": {
      "addr:city": "Санкт-Петербург",
      "addr:country": "RU",
      "addr:housenumber": "2А",
      "addr:postcode": "194017",
      "addr:street": "Удельный проспект",
      "architect": "Гранхольм, Бруно Фердинанд",
      "architect:wikidata": "Q993300",
      "building": "train_station",
      "building:architecture": "art_nouveau",
      "building:levels": "2",
      "building:parts": "horizontal",
      "description": "Вокзальное здание ж/д ст. Удельная",
      "heritage": "4",
      "start_date": "1914"
    }
  },
  {
    "type": "way",
    "id": 104396342,
    "nodes": [
      1204454411,
      1204454685,
      1204454783,
      10246105647,
      1204454479,
      1204454411
    ],
    "tags": {
      "building": "train_station",
      "name": "Станция Юный"
    }
  },
  {
    "type": "way",
    "id": 104670338,
    "nodes": [
      1207364027,
      1207364789,
      1207364918,
      1207365372,
      1207364027
    ],
    "tags": {
      "building": "train_station",
      "freight": "yes",
      "name": "Цветочная",
      "railway": "station"
    }
  },
  {
    "type": "way",
    "id": 149345779,
    "nodes": [
      1623387902,
      1623387898,
      1623387903,
      3870045073,
      3870045075,
      1623387910,
      3870045077,
      1623387915,
      1623387914,
      1623387911,
      1623387902
    ],
    "tags": {
      "building": "train_station"
    }
  },
  {
    "type": "way",
    "id": 190168057,
    "nodes": [
      2007774647,
      2007774654,
      2007774653,
      2007774646,
      8839864977,
      2007774647
    ],
    "tags": {
      "building": "train_station",
      "building:levels": "1"
    }
  },
  {
    "type": "way",
    "id": 195862002,
    "nodes": [
      7883701893,
      7883701895,
      7883701898,
      7883701896,
      7883701897,
      7883701900,
      2062739064,
      2062739065,
      5699806207,
      5699806204,
      5699806205,
      5699806211,
      5699806208,
      5699806209,
      5699806210,
      2062739066,
      5699806206,
      7883701890,
      2062739063,
      7883701899,
      7883701894,
      7883701893
    ],
    "tags": {
      "building": "train_station",
      "building:levels": "2",
      "name": "Фарфоровская"
    }
  },
  {
    "type": "way",
    "id": 590181286,
    "nodes": [
      5635082532,
      5635082535,
      5635082534,
      5635082533,
      5635082532
    ],
    "tags": {
      "building": "train_station",
      "building:levels": "1"
    }
  },
  {
    "type": "way",
    "id": 590181289,
    "nodes": [
      5635082539,
      5635082538,
      5635082537,
      5635082536,
      5635082539
    ],
    "tags": {
      "building": "train_station",
      "building:levels": "1"
    }
  },
  {
    "type": "way",
    "id": 1112300937,
    "nodes": [
      10176027697,
      6130974092,
      371912982,
      10176027700,
      371912951,
      6130974088,
      2311678319,
      4535624401,
      10176027698,
      10176027701,
      10176027702,
      10176027703,
      10176027684,
      10176027704,
      10176027705,
      10176027706,
      10176027707,
      931477763,
      931477868,
      10176027697
    ],
    "tags": {
      "addr:city": "Санкт-Петербург",
      "addr:country": "RU",
      "addr:housenumber": "73",
      "addr:postcode": "195213",
      "addr:street": "Заневский проспект",
      "building": "train_station",
      "building:levels": "5",
      "building:min_level": "1",
      "layer": "1",
      "name": "Ладожский вокзал",
      "name:de": "Ladoga-Bahnhof",
      "name:fi": "Laatokan rautatieasema",
      "name:ru": "Ладожский вокзал",
      "start_date": "2003",
      "website": "http://ladogsky.dzvr.ru/",
      "wikidata": "Q1800041",
      "wikipedia": "ru:Ладожский вокзал"
    }
  },
  {
    "type": "way",
    "id": 1112300938,
    "nodes": [
      10176027707,
      10184426243,
      10176027708,
      4535624453,
      1966507631,
      4535624404,
      931477763,
      10176027707
    ],
    "tags": {
      "building": "train_station",
      "building:levels": "2",
      "building:min_level": "1",
      "layer": "1"
    }
  },
  {
    "type": "way",
    "id": 1112300939,
    "nodes": [
      4535624401,
      4535624439,
      1966507630,
      4535624446,
      10176027699,
      10184426242,
      10176027698,
      4535624401
    ],
    "tags": {
      "building": "train_station",
      "building:levels": "2",
      "building:min_level": "1",
      "layer": "1"
    }
  },
  {
    "type": "way",
    "id": 1112300940,
    "nodes": [
      371912982,
      6130974091,
      6478729086,
      371912985,
      371912991,
      371912996,
      371913002,
      6130974090,
      6130974089,
      371912951,
      10176027700,
      371912982
    ],
    "tags": {
      "addr:city": "Санкт-Петербург",
      "addr:country": "RU",
      "addr:housenumber": "73",
      "addr:postcode": "195213",
      "addr:street": "Заневский проспект",
      "building": "train_station",
      "building:levels": "5",
      "building:min_level": "1",
      "layer": "1",
      "name": "Ладожский вокзал",
      "name:de": "Ladoga-Bahnhof",
      "name:fi": "Laatokan rautatieasema",
      "name:ru": "Ладожский вокзал",
      "start_date": "2003",
      "website": "http://ladogsky.dzvr.ru/",
      "wikidata": "Q1800041",
      "wikipedia": "ru:Ладожский вокзал"
    }
  },
  {
    "type": "way",
    "id": 1113165829,
    "nodes": [
      10184432024,
      371912954,
      371912958,
      371912963,
      4535624433,
      4535624410,
      371912967,
      371912972,
      371912977,
      4535624461,
      5927539595,
      4535624397,
      4535624464,
      4535624420,
      4535624458,
      4535624396,
      5927539594,
      4535624468,
      10184432025,
      10184432024
    ],
    "tags": {
      "addr:city": "Санкт-Петербург",
      "addr:country": "RU",
      "addr:housenumber": "73",
      "addr:postcode": "195213",
      "addr:street": "Заневский проспект",
      "building": "train_station",
      "building:levels": "5",
      "building:min_level": "1",
      "fixme": "теги после разделения",
      "layer": "1",
      "name": "Ладожский вокзал",
      "name:de": "Ladoga-Bahnhof",
      "name:fi": "Laatokan rautatieasema",
      "name:ru": "Ладожский вокзал",
      "start_date": "2003",
      "website": "http://ladogsky.dzvr.ru/",
      "wikidata": "Q1800041",
      "wikipedia": "ru:Ладожский вокзал"
    }
  },
  {
    "type": "way",
    "id": 1113165830,
    "nodes": [
      4535624441,
      4535624414,
      10184432024,
      10184432025,
      4535624395,
      4535624444,
      4535624441
    ],
    "tags": {
      "building": "train_station",
      "building:levels": "2",
      "building:min_level": "1",
      "building:part": "yes"
    }
  },
  {
    "type": "node",
    "id": 671456609,
    "lat": 59.8529340,
    "lon": 30.2877468
  },
  {
    "type": "node",
    "id": 671456611,
    "lat": 59.8528096,
    "lon": 30.2877516
  },
  {
    "type": "node",
    "id": 671456612,
    "lat": 59.8525036,
    "lon": 30.2873217
  },
  {
    "type": "node",
    "id": 671456613,
    "lat": 59.8526247,
    "lon": 30.2873165
  },
  {
    "type": "node",
    "id": 671456615,
    "lat": 59.8528087,
    "lon": 30.2876964
  },
  {
    "type": "node",
    "id": 671456616,
    "lat": 59.8526327,
    "lon": 30.2877033
  },
  {
    "type": "node",
    "id": 671456617,
    "lat": 59.8526277,
    "lon": 30.2873672
  },
  {
    "type": "node",
    "id": 671456618,
    "lat": 59.8528055,
    "lon": 30.2873672
  },
  {
    "type": "node",
    "id": 671456619,
    "lat": 59.8528076,
    "lon": 30.2874868
  },
  {
    "type": "node",
    "id": 671456620,
    "lat": 59.8529320,
    "lon": 30.2874805
  },
  {
    "type": "node",
    "id": 1449261346,
    "lat": 59.8525091,
    "lon": 30.2876510
  },
  {
    "type": "node",
    "id": 2702357255,
    "lat": 59.8528094,
    "lon": 30.2877297
  },
  {
    "type": "node",
    "id": 3733594071,
    "lat": 59.8526477,
    "lon": 30.2873668
  },
  {
    "type": "node",
    "id": 2007774646,
    "lat": 59.8750921,
    "lon": 30.2921206
  },
  {
    "type": "node",
    "id": 2007774647,
    "lat": 59.8750999,
    "lon": 30.2918776
  },
  {
    "type": "node",
    "id": 2007774653,
    "lat": 59.8752534,
    "lon": 30.2921410
  },
  {
    "type": "node",
    "id": 2007774654,
    "lat": 59.8752611,
    "lon": 30.2918980
  },
  {
    "type": "node",
    "id": 8839864977,
    "lat": 59.8750959,
    "lon": 30.2920024
  },
  {
    "type": "node",
    "id": 315053072,
    "lat": 59.8665677,
    "lon": 30.3216475
  },
  {
    "type": "node",
    "id": 315053073,
    "lat": 59.8665707,
    "lon": 30.3219506
  },
  {
    "type": "node",
    "id": 1478166549,
    "lat": 59.8662368,
    "lon": 30.3216387
  },
  {
    "type": "node",
    "id": 1478166551,
    "lat": 59.8662675,
    "lon": 30.3215934
  },
  {
    "type": "node",
    "id": 1478166561,
    "lat": 59.8662975,
    "lon": 30.3215650
  },
  {
    "type": "node",
    "id": 1478166564,
    "lat": 59.8663302,
    "lon": 30.3215504
  },
  {
    "type": "node",
    "id": 1478166567,
    "lat": 59.8663611,
    "lon": 30.3215455
  },
  {
    "type": "node",
    "id": 1478166571,
    "lat": 59.8663997,
    "lon": 30.3215635
  },
  {
    "type": "node",
    "id": 1478166577,
    "lat": 59.8664303,
    "lon": 30.3215910
  },
  {
    "type": "node",
    "id": 1478166584,
    "lat": 59.8664396,
    "lon": 30.3220000
  },
  {
    "type": "node",
    "id": 1478166586,
    "lat": 59.8664805,
    "lon": 30.3216482
  },
  {
    "type": "node",
    "id": 1478166588,
    "lat": 59.8664560,
    "lon": 30.3219599
  },
  {
    "type": "node",
    "id": 1478166592,
    "lat": 59.8664903,
    "lon": 30.3219666
  },
  {
    "type": "node",
    "id": 1672243301,
    "lat": 59.8661950,
    "lon": 30.3218217
  },
  {
    "type": "node",
    "id": 1672243303,
    "lat": 59.8661977,
    "lon": 30.3219006
  },
  {
    "type": "node",
    "id": 1672243305,
    "lat": 59.8662084,
    "lon": 30.3219694
  },
  {
    "type": "node",
    "id": 1672243310,
    "lat": 59.8662037,
    "lon": 30.3217346
  },
  {
    "type": "node",
    "id": 1672243318,
    "lat": 59.8662281,
    "lon": 30.3220325
  },
  {
    "type": "node",
    "id": 1672243319,
    "lat": 59.8662550,
    "lon": 30.3220852
  },
  {
    "type": "node",
    "id": 1672243320,
    "lat": 59.8662852,
    "lon": 30.3221157
  },
  {
    "type": "node",
    "id": 1672243321,
    "lat": 59.8663153,
    "lon": 30.3221366
  },
  {
    "type": "node",
    "id": 1672243322,
    "lat": 59.8663472,
    "lon": 30.3220849
  },
  {
    "type": "node",
    "id": 1672243326,
    "lat": 59.8663859,
    "lon": 30.3220901
  },
  {
    "type": "node",
    "id": 1672243329,
    "lat": 59.8664192,
    "lon": 30.3220565
  },
  {
    "type": "node",
    "id": 1672243330,
    "lat": 59.8664163,
    "lon": 30.3220421
  },
  {
    "type": "node",
    "id": 1672243333,
    "lat": 59.8664516,
    "lon": 30.3216169
  },
  {
    "type": "node",
    "id": 7415756106,
    "lat": 59.8663495,
    "lon": 30.3220972
  },
  {
    "type": "node",
    "id": 7415756107,
    "lat": 59.8663233,
    "lon": 30.3220824
  },
  {
    "type": "node",
    "id": 1207364027,
    "lat": 59.8869724,
    "lon": 30.3342997
  },
  {
    "type": "node",
    "id": 1207364789,
    "lat": 59.8870117,
    "lon": 30.3340512
  },
  {
    "type": "node",
    "id": 1207364918,
    "lat": 59.8872648,
    "lon": 30.3342100
  },
  {
    "type": "node",
    "id": 1207365372,
    "lat": 59.8872256,
    "lon": 30.3344585
  },
  {
    "type": "node",
    "id": 1623387898,
    "lat": 59.9484358,
    "lon": 30.2348496
  },
  {
    "type": "node",
    "id": 1623387902,
    "lat": 59.9485001,
    "lon": 30.2348890
  },
  {
    "type": "node",
    "id": 1623387903,
    "lat": 59.9485028,
    "lon": 30.2344093
  },
  {
    "type": "node",
    "id": 1623387910,
    "lat": 59.9485601,
    "lon": 30.2344432
  },
  {
    "type": "node",
    "id": 1623387911,
    "lat": 59.9485803,
    "lon": 30.2348452
  },
  {
    "type": "node",
    "id": 1623387914,
    "lat": 59.9486105,
    "lon": 30.2346331
  },
  {
    "type": "node",
    "id": 1623387915,
    "lat": 59.9486163,
    "lon": 30.2345923
  },
  {
    "type": "node",
    "id": 3870045073,
    "lat": 59.9485254,
    "lon": 30.2344226
  },
  {
    "type": "node",
    "id": 3870045075,
    "lat": 59.9485494,
    "lon": 30.2344369
  },
  {
    "type": "node",
    "id": 3870045077,
    "lat": 59.9485843,
    "lon": 30.2345074
  },
  {
    "type": "node",
    "id": 5635082532,
    "lat": 59.9719323,
    "lon": 30.2116769
  },
  {
    "type": "node",
    "id": 5635082533,
    "lat": 59.9719295,
    "lon": 30.2118211
  },
  {
    "type": "node",
    "id": 5635082534,
    "lat": 59.9719990,
    "lon": 30.2118263
  },
  {
    "type": "node",
    "id": 5635082535,
    "lat": 59.9720017,
    "lon": 30.2116821
  },
  {
    "type": "node",
    "id": 5635082536,
    "lat": 59.9719328,
    "lon": 30.2119948
  },
  {
    "type": "node",
    "id": 5635082539,
    "lat": 59.9720026,
    "lon": 30.2119972
  },
  {
    "type": "node",
    "id": 5635082537,
    "lat": 59.9719316,
    "lon": 30.2121269
  },
  {
    "type": "node",
    "id": 5635082538,
    "lat": 59.9720014,
    "lon": 30.2121293
  },
  {
    "type": "node",
    "id": 353927287,
    "lat": 59.9610394,
    "lon": 30.2923018
  },
  {
    "type": "node",
    "id": 635814389,
    "lat": 59.9610976,
    "lon": 30.2918700
  },
  {
    "type": "node",
    "id": 635814390,
    "lat": 59.9611145,
    "lon": 30.2921670
  },
  {
    "type": "node",
    "id": 635814391,
    "lat": 59.9609052,
    "lon": 30.2924448
  },
  {
    "type": "node",
    "id": 635814392,
    "lat": 59.9608014,
    "lon": 30.2922142
  },
  {
    "type": "node",
    "id": 635814393,
    "lat": 59.9608150,
    "lon": 30.2921898
  },
  {
    "type": "node",
    "id": 635814394,
    "lat": 59.9608058,
    "lon": 30.2919792
  },
  {
    "type": "node",
    "id": 635814395,
    "lat": 59.9607890,
    "lon": 30.2919597
  },
  {
    "type": "node",
    "id": 635814396,
    "lat": 59.9608700,
    "lon": 30.2916812
  },
  {
    "type": "node",
    "id": 1933529453,
    "lat": 59.9610269,
    "lon": 30.2917982
  },
  {
    "type": "node",
    "id": 3735086126,
    "lat": 59.9610297,
    "lon": 30.2923193
  },
  {
    "type": "node",
    "id": 3736590221,
    "lat": 59.9609598,
    "lon": 30.2917725
  },
  {
    "type": "node",
    "id": 3736590222,
    "lat": 59.9609684,
    "lon": 30.2917387
  },
  {
    "type": "node",
    "id": 3736590223,
    "lat": 59.9609817,
    "lon": 30.2923074
  },
  {
    "type": "node",
    "id": 3736590224,
    "lat": 59.9610061,
    "lon": 30.2923616
  },
  {
    "type": "node",
    "id": 255010184,
    "lat": 59.9893931,
    "lon": 30.2556064
  },
  {
    "type": "node",
    "id": 255010188,
    "lat": 59.9890787,
    "lon": 30.2553129
  },
  {
    "type": "node",
    "id": 255010199,
    "lat": 59.9893457,
    "lon": 30.2550329
  },
  {
    "type": "node",
    "id": 255010200,
    "lat": 59.9893476,
    "lon": 30.2548651
  },
  {
    "type": "node",
    "id": 255010201,
    "lat": 59.9893727,
    "lon": 30.2554389
  },
  {
    "type": "node",
    "id": 255010202,
    "lat": 59.9890977,
    "lon": 30.2554279
  },
  {
    "type": "node",
    "id": 255010203,
    "lat": 59.9892587,
    "lon": 30.2555839
  },
  {
    "type": "node",
    "id": 255010204,
    "lat": 59.9896828,
    "lon": 30.2555466
  },
  {
    "type": "node",
    "id": 255010205,
    "lat": 59.9891057,
    "lon": 30.2550899
  },
  {
    "type": "node",
    "id": 255010206,
    "lat": 59.9891557,
    "lon": 30.2549929
  },
  {
    "type": "node",
    "id": 255010208,
    "lat": 59.9890827,
    "lon": 30.2551969
  },
  {
    "type": "node",
    "id": 255010209,
    "lat": 59.9893227,
    "lon": 30.2555359
  },
  {
    "type": "node",
    "id": 255010210,
    "lat": 59.9892237,
    "lon": 30.2549489
  },
  {
    "type": "node",
    "id": 255010211,
    "lat": 59.9891327,
    "lon": 30.2555099
  },
  {
    "type": "node",
    "id": 255010212,
    "lat": 59.9892847,
    "lon": 30.2549619
  },
  {
    "type": "node",
    "id": 255010213,
    "lat": 59.9896445,
    "lon": 30.2548038
  },
  {
    "type": "node",
    "id": 255010214,
    "lat": 59.9891937,
    "lon": 30.2555739
  },
  {
    "type": "node",
    "id": 1669404531,
    "lat": 59.9895694,
    "lon": 30.2548193
  },
  {
    "type": "node",
    "id": 1669404539,
    "lat": 59.9895910,
    "lon": 30.2555645
  },
  {
    "type": "node",
    "id": 6543542556,
    "lat": 59.9891337,
    "lon": 30.2550356
  },
  {
    "type": "node",
    "id": 1002512030,
    "lat": 59.8952765,
    "lon": 30.3245326
  },
  {
    "type": "node",
    "id": 1002512062,
    "lat": 59.8953515,
    "lon": 30.3250154
  },
  {
    "type": "node",
    "id": 1002512065,
    "lat": 59.8952970,
    "lon": 30.3245863
  },
  {
    "type": "node",
    "id": 1002512081,
    "lat": 59.8954206,
    "lon": 30.3249110
  },
  {
    "type": "node",
    "id": 1002512084,
    "lat": 59.8952075,
    "lon": 30.3246370
  },
  {
    "type": "node",
    "id": 4155969970,
    "lat": 59.8953316,
    "lon": 30.3249630
  },
  {
    "type": "node",
    "id": 861722439,
    "lat": 59.8915815,
    "lon": 30.3451754
  },
  {
    "type": "node",
    "id": 861722539,
    "lat": 59.8914799,
    "lon": 30.3450204
  },
  {
    "type": "node",
    "id": 861722565,
    "lat": 59.8915010,
    "lon": 30.3452108
  },
  {
    "type": "node",
    "id": 861722647,
    "lat": 59.8915523,
    "lon": 30.3449886
  },
  {
    "type": "node",
    "id": 5792808480,
    "lat": 59.8915705,
    "lon": 30.3450756
  },
  {
    "type": "node",
    "id": 5792808481,
    "lat": 59.8915623,
    "lon": 30.3450792
  },
  {
    "type": "node",
    "id": 946973293,
    "lat": 59.9562059,
    "lon": 30.3191637
  },
  {
    "type": "node",
    "id": 990212226,
    "lat": 59.9559672,
    "lon": 30.3189853
  },
  {
    "type": "node",
    "id": 990212227,
    "lat": 59.9563544,
    "lon": 30.3187181
  },
  {
    "type": "node",
    "id": 990212233,
    "lat": 59.9562406,
    "lon": 30.3183872
  },
  {
    "type": "node",
    "id": 990212235,
    "lat": 59.9559407,
    "lon": 30.3188599
  },
  {
    "type": "node",
    "id": 990212236,
    "lat": 59.9559527,
    "lon": 30.3185923
  },
  {
    "type": "node",
    "id": 990212238,
    "lat": 59.9560124,
    "lon": 30.3190873
  },
  {
    "type": "node",
    "id": 990212247,
    "lat": 59.9563203,
    "lon": 30.3189943
  },
  {
    "type": "node",
    "id": 990212250,
    "lat": 59.9561384,
    "lon": 30.3191814
  },
  {
    "type": "node",
    "id": 990212252,
    "lat": 59.9563347,
    "lon": 30.3185793
  },
  {
    "type": "node",
    "id": 990212254,
    "lat": 59.9563494,
    "lon": 30.3188621
  },
  {
    "type": "node",
    "id": 990212257,
    "lat": 59.9561757,
    "lon": 30.3183459
  },
  {
    "type": "node",
    "id": 990212258,
    "lat": 59.9559357,
    "lon": 30.3187242
  },
  {
    "type": "node",
    "id": 990212261,
    "lat": 59.9560715,
    "lon": 30.3191550
  },
  {
    "type": "node",
    "id": 990212265,
    "lat": 59.9561076,
    "lon": 30.3183482
  },
  {
    "type": "node",
    "id": 990212275,
    "lat": 59.9562956,
    "lon": 30.3184678
  },
  {
    "type": "node",
    "id": 2562721721,
    "lat": 59.9559899,
    "lon": 30.3184783
  },
  {
    "type": "node",
    "id": 2562721722,
    "lat": 59.9560434,
    "lon": 30.3183940
  },
  {
    "type": "node",
    "id": 2562721723,
    "lat": 59.9562705,
    "lon": 30.3190989
  },
  {
    "type": "node",
    "id": 356370497,
    "lat": 59.9944304,
    "lon": 30.3273200
  },
  {
    "type": "node",
    "id": 356370499,
    "lat": 59.9945200,
    "lon": 30.3271854
  },
  {
    "type": "node",
    "id": 356370502,
    "lat": 59.9946280,
    "lon": 30.3274727
  },
  {
    "type": "node",
    "id": 356370503,
    "lat": 59.9945384,
    "lon": 30.3276073
  },
  {
    "type": "node",
    "id": 1140373160,
    "lat": 59.9945111,
    "lon": 30.3275347
  },
  {
    "type": "node",
    "id": 3205728033,
    "lat": 59.9945706,
    "lon": 30.3275589
  },
  {
    "type": "node",
    "id": 3205728035,
    "lat": 59.9946108,
    "lon": 30.3274270
  },
  {
    "type": "node",
    "id": 437465575,
    "lat": 59.9905986,
    "lon": 30.3529869
  },
  {
    "type": "node",
    "id": 437465576,
    "lat": 59.9906276,
    "lon": 30.3535677
  },
  {
    "type": "node",
    "id": 437465577,
    "lat": 59.9907977,
    "lon": 30.3535337
  },
  {
    "type": "node",
    "id": 437465578,
    "lat": 59.9907732,
    "lon": 30.3530432
  },
  {
    "type": "node",
    "id": 1667884608,
    "lat": 59.9907103,
    "lon": 30.3529647
  },
  {
    "type": "node",
    "id": 1667884617,
    "lat": 59.9907148,
    "lon": 30.3530548
  },
  {
    "type": "node",
    "id": 9872497198,
    "lat": 59.9907451,
    "lon": 30.3535442
  },
  {
    "type": "node",
    "id": 2062739063,
    "lat": 59.8782501,
    "lon": 30.4089613
  },
  {
    "type": "node",
    "id": 2062739064,
    "lat": 59.8783178,
    "lon": 30.4091868
  },
  {
    "type": "node",
    "id": 2062739065,
    "lat": 59.8783384,
    "lon": 30.4091623
  },
  {
    "type": "node",
    "id": 2062739066,
    "lat": 59.8784295,
    "lon": 30.4089075
  },
  {
    "type": "node",
    "id": 5699806204,
    "lat": 59.8784216,
    "lon": 30.4091220
  },
  {
    "type": "node",
    "id": 5699806205,
    "lat": 59.8784088,
    "lon": 30.4090792
  },
  {
    "type": "node",
    "id": 5699806206,
    "lat": 59.8783945,
    "lon": 30.4087902
  },
  {
    "type": "node",
    "id": 5699806207,
    "lat": 59.8783513,
    "lon": 30.4092053
  },
  {
    "type": "node",
    "id": 5699806208,
    "lat": 59.8784531,
    "lon": 30.4089803
  },
  {
    "type": "node",
    "id": 5699806209,
    "lat": 59.8784763,
    "lon": 30.4089528
  },
  {
    "type": "node",
    "id": 5699806210,
    "lat": 59.8784541,
    "lon": 30.4088783
  },
  {
    "type": "node",
    "id": 5699806211,
    "lat": 59.8784634,
    "lon": 30.4090146
  },
  {
    "type": "node",
    "id": 7883701890,
    "lat": 59.8782839,
    "lon": 30.4089212
  },
  {
    "type": "node",
    "id": 7883701893,
    "lat": 59.8782386,
    "lon": 30.4089776
  },
  {
    "type": "node",
    "id": 7883701894,
    "lat": 59.8782450,
    "lon": 30.4089992
  },
  {
    "type": "node",
    "id": 7883701895,
    "lat": 59.8782227,
    "lon": 30.4089964
  },
  {
    "type": "node",
    "id": 7883701896,
    "lat": 59.8782645,
    "lon": 30.4090796
  },
  {
    "type": "node",
    "id": 7883701897,
    "lat": 59.8782945,
    "lon": 30.4091799
  },
  {
    "type": "node",
    "id": 7883701898,
    "lat": 59.8782520,
    "lon": 30.4090945
  },
  {
    "type": "node",
    "id": 7883701899,
    "lat": 59.8782571,
    "lon": 30.4089848
  },
  {
    "type": "node",
    "id": 7883701900,
    "lat": 59.8783102,
    "lon": 30.4091613
  },
  {
    "type": "node",
    "id": 529854070,
    "lat": 59.8773084,
    "lon": 30.4413505
  },
  {
    "type": "node",
    "id": 563697686,
    "lat": 59.8773571,
    "lon": 30.4413809
  },
  {
    "type": "node",
    "id": 563697694,
    "lat": 59.8773648,
    "lon": 30.4413706
  },
  {
    "type": "node",
    "id": 7816815235,
    "lat": 59.8773337,
    "lon": 30.4413167
  },
  {
    "type": "node",
    "id": 7816815236,
    "lat": 59.8773014,
    "lon": 30.4413302
  },
  {
    "type": "node",
    "id": 529854069,
    "lat": 59.8775261,
    "lon": 30.4419614
  },
  {
    "type": "node",
    "id": 529854071,
    "lat": 59.8771216,
    "lon": 30.4415759
  },
  {
    "type": "node",
    "id": 529854072,
    "lat": 59.8773507,
    "lon": 30.4422096
  },
  {
    "type": "node",
    "id": 563697681,
    "lat": 59.8771551,
    "lon": 30.4416660
  },
  {
    "type": "node",
    "id": 563697684,
    "lat": 59.8771209,
    "lon": 30.4417114
  },
  {
    "type": "node",
    "id": 563697688,
    "lat": 59.8774482,
    "lon": 30.4417420
  },
  {
    "type": "node",
    "id": 563697692,
    "lat": 59.8774828,
    "lon": 30.4416969
  },
  {
    "type": "node",
    "id": 563697695,
    "lat": 59.8772714,
    "lon": 30.4419963
  },
  {
    "type": "node",
    "id": 563697696,
    "lat": 59.8772400,
    "lon": 30.4420423
  },
  {
    "type": "node",
    "id": 2079490033,
    "lat": 59.8774376,
    "lon": 30.4420862
  },
  {
    "type": "node",
    "id": 2079490041,
    "lat": 59.8771712,
    "lon": 30.4418444
  },
  {
    "type": "node",
    "id": 4221182329,
    "lat": 59.8772441,
    "lon": 30.4420365
  },
  {
    "type": "node",
    "id": 319795197,
    "lat": 59.9323565,
    "lon": 30.4386500
  },
  {
    "type": "node",
    "id": 319795198,
    "lat": 59.9328255,
    "lon": 30.4392515
  },
  {
    "type": "node",
    "id": 319795200,
    "lat": 59.9326119,
    "lon": 30.4399152
  },
  {
    "type": "node",
    "id": 319795202,
    "lat": 59.9321428,
    "lon": 30.4393136
  },
  {
    "type": "node",
    "id": 371912951,
    "lat": 59.9317994,
    "lon": 30.4407457
  },
  {
    "type": "node",
    "id": 371912954,
    "lat": 59.9321190,
    "lon": 30.4383922
  },
  {
    "type": "node",
    "id": 371912958,
    "lat": 59.9321927,
    "lon": 30.4384390
  },
  {
    "type": "node",
    "id": 371912963,
    "lat": 59.9320858,
    "lon": 30.4392582
  },
  {
    "type": "node",
    "id": 371912967,
    "lat": 59.9326054,
    "lon": 30.4399439
  },
  {
    "type": "node",
    "id": 371912972,
    "lat": 59.9329203,
    "lon": 30.4393957
  },
  {
    "type": "node",
    "id": 371912977,
    "lat": 59.9329739,
    "lon": 30.4395160
  },
  {
    "type": "node",
    "id": 371912982,
    "lat": 59.9320081,
    "lon": 30.4410120
  },
  {
    "type": "node",
    "id": 836617905,
    "lat": 59.9326802,
    "lon": 30.4390651
  },
  {
    "type": "node",
    "id": 931477763,
    "lat": 59.9321307,
    "lon": 30.4408232
  },
  {
    "type": "node",
    "id": 931477868,
    "lat": 59.9320969,
    "lon": 30.4408762
  },
  {
    "type": "node",
    "id": 1172985005,
    "lat": 59.9324731,
    "lon": 30.4397372
  },
  {
    "type": "node",
    "id": 1172985008,
    "lat": 59.9325160,
    "lon": 30.4388546
  },
  {
    "type": "node",
    "id": 1179673927,
    "lat": 59.9323051,
    "lon": 30.4395217
  },
  {
    "type": "node",
    "id": 1966507630,
    "lat": 59.9318626,
    "lon": 30.4402544
  },
  {
    "type": "node",
    "id": 1966507631,
    "lat": 59.9322152,
    "lon": 30.4406888
  },
  {
    "type": "node",
    "id": 2311678319,
    "lat": 59.9318290,
    "lon": 30.4405287
  },
  {
    "type": "node",
    "id": 4535624391,
    "lat": 59.9317065,
    "lon": 30.4396092
  },
  {
    "type": "node",
    "id": 4535624395,
    "lat": 59.9324803,
    "lon": 30.4402808
  },
  {
    "type": "node",
    "id": 4535624396,
    "lat": 59.9327630,
    "lon": 30.4406106
  },
  {
    "type": "node",
    "id": 4535624397,
    "lat": 59.9327777,
    "lon": 30.4405551
  },
  {
    "type": "node",
    "id": 4535624401,
    "lat": 59.9318431,
    "lon": 30.4404241
  },
  {
    "type": "node",
    "id": 4535624404,
    "lat": 59.9321679,
    "lon": 30.4407647
  },
  {
    "type": "node",
    "id": 4535624405,
    "lat": 59.9325286,
    "lon": 30.4410366
  },
  {
    "type": "node",
    "id": 4535624406,
    "lat": 59.9317012,
    "lon": 30.4394991
  },
  {
    "type": "node",
    "id": 4535624408,
    "lat": 59.9322684,
    "lon": 30.4406091
  },
  {
    "type": "node",
    "id": 4535624409,
    "lat": 59.9326658,
    "lon": 30.4408397
  },
  {
    "type": "node",
    "id": 4535624410,
    "lat": 59.9326010,
    "lon": 30.4399372
  },
  {
    "type": "node",
    "id": 4535624414,
    "lat": 59.9319521,
    "lon": 30.4396429
  },
  {
    "type": "node",
    "id": 4535624418,
    "lat": 59.9316486,
    "lon": 30.4398321
  },
  {
    "type": "node",
    "id": 4535624420,
    "lat": 59.9327856,
    "lon": 30.4406070
  },
  {
    "type": "node",
    "id": 4535624425,
    "lat": 59.9316859,
    "lon": 30.4395217
  },
  {
    "type": "node",
    "id": 4535624426,
    "lat": 59.9326308,
    "lon": 30.4408408
  },
  {
    "type": "node",
    "id": 4535624427,
    "lat": 59.9316497,
    "lon": 30.4398837
  },
  {
    "type": "node",
    "id": 4535624428,
    "lat": 59.9316621,
    "lon": 30.4398146
  },
  {
    "type": "node",
    "id": 4535624431,
    "lat": 59.9326608,
    "lon": 30.4407887
  },
  {
    "type": "node",
    "id": 4535624433,
    "lat": 59.9321190,
    "lon": 30.4393020
  },
  {
    "type": "node",
    "id": 4535624437,
    "lat": 59.9325556,
    "lon": 30.4410018
  },
  {
    "type": "node",
    "id": 4535624438,
    "lat": 59.9318885,
    "lon": 30.4400899
  },
  {
    "type": "node",
    "id": 4535624439,
    "lat": 59.9318507,
    "lon": 30.4403579
  },
  {
    "type": "node",
    "id": 4535624441,
    "lat": 59.9319279,
    "lon": 30.4397970
  },
  {
    "type": "node",
    "id": 4535624442,
    "lat": 59.9317195,
    "lon": 30.4395215
  },
  {
    "type": "node",
    "id": 4535624444,
    "lat": 59.9323939,
    "lon": 30.4404147
  },
  {
    "type": "node",
    "id": 4535624445,
    "lat": 59.9316914,
    "lon": 30.4395698
  },
  {
    "type": "node",
    "id": 4535624446,
    "lat": 59.9318717,
    "lon": 30.4401749
  },
  {
    "type": "node",
    "id": 4535624447,
    "lat": 59.9319190,
    "lon": 30.4398651
  },
  {
    "type": "node",
    "id": 4535624449,
    "lat": 59.9326524,
    "lon": 30.4408531
  },
  {
    "type": "node",
    "id": 4535624452,
    "lat": 59.9323584,
    "lon": 30.4404696
  },
  {
    "type": "node",
    "id": 4535624453,
    "lat": 59.9322369,
    "lon": 30.4406539
  },
  {
    "type": "node",
    "id": 4535624454,
    "lat": 59.9325556,
    "lon": 30.4410360
  },
  {
    "type": "node",
    "id": 4535624458,
    "lat": 59.9327788,
    "lon": 30.4406152
  },
  {
    "type": "node",
    "id": 4535624461,
    "lat": 59.9325254,
    "lon": 30.4402213
  },
  {
    "type": "node",
    "id": 4535624462,
    "lat": 59.9325452,
    "lon": 30.4410433
  },
  {
    "type": "node",
    "id": 4535624463,
    "lat": 59.9316429,
    "lon": 30.4398436
  },
  {
    "type": "node",
    "id": 4535624464,
    "lat": 59.9327842,
    "lon": 30.4405854
  },
  {
    "type": "node",
    "id": 4535624465,
    "lat": 59.9326636,
    "lon": 30.4408174
  },
  {
    "type": "node",
    "id": 4535624466,
    "lat": 59.9316432,
    "lon": 30.4398671
  },
  {
    "type": "node",
    "id": 4535624468,
    "lat": 59.9324960,
    "lon": 30.4402564
  },
  {
    "type": "node",
    "id": 4535624470,
    "lat": 59.9325481,
    "lon": 30.4409742
  },
  {
    "type": "node",
    "id": 5927539594,
    "lat": 59.9325209,
    "lon": 30.4402894
  },
  {
    "type": "node",
    "id": 5927539595,
    "lat": 59.9325452,
    "lon": 30.4402474
  },
  {
    "type": "node",
    "id": 6130530999,
    "lat": 59.9323485,
    "lon": 30.4404849
  },
  {
    "type": "node",
    "id": 6130531002,
    "lat": 59.9322865,
    "lon": 30.4405810
  },
  {
    "type": "node",
    "id": 6130974088,
    "lat": 59.9318243,
    "lon": 30.4405633
  },
  {
    "type": "node",
    "id": 6130974089,
    "lat": 59.9317870,
    "lon": 30.4407837
  },
  {
    "type": "node",
    "id": 6130974090,
    "lat": 59.9317563,
    "lon": 30.4408715
  },
  {
    "type": "node",
    "id": 6130974091,
    "lat": 59.9319993,
    "lon": 30.4410547
  },
  {
    "type": "node",
    "id": 6130974092,
    "lat": 59.9320849,
    "lon": 30.4408951
  },
  {
    "type": "node",
    "id": 6478729086,
    "lat": 59.9319799,
    "lon": 30.4411149
  },
  {
    "type": "node",
    "id": 10176027684,
    "lat": 59.9320535,
    "lon": 30.4405036
  },
  {
    "type": "node",
    "id": 10176027685,
    "lat": 59.9320744,
    "lon": 30.4404408
  },
  {
    "type": "node",
    "id": 10176027697,
    "lat": 59.9320873,
    "lon": 30.4408914
  },
  {
    "type": "node",
    "id": 10176027698,
    "lat": 59.9318844,
    "lon": 30.4404730
  },
  {
    "type": "node",
    "id": 10176027699,
    "lat": 59.9319186,
    "lon": 30.4402364
  },
  {
    "type": "node",
    "id": 10176027700,
    "lat": 59.9318670,
    "lon": 30.4408213
  },
  {
    "type": "node",
    "id": 10176027701,
    "lat": 59.9319149,
    "lon": 30.4404481
  },
  {
    "type": "node",
    "id": 10176027702,
    "lat": 59.9319907,
    "lon": 30.4404430
  },
  {
    "type": "node",
    "id": 10176027703,
    "lat": 59.9320337,
    "lon": 30.4404768
  },
  {
    "type": "node",
    "id": 10176027704,
    "lat": 59.9320631,
    "lon": 30.4405219
  },
  {
    "type": "node",
    "id": 10176027705,
    "lat": 59.9320879,
    "lon": 30.4405851
  },
  {
    "type": "node",
    "id": 10176027706,
    "lat": 59.9321015,
    "lon": 30.4406753
  },
  {
    "type": "node",
    "id": 10176027707,
    "lat": 59.9320959,
    "lon": 30.4407798
  },
  {
    "type": "node",
    "id": 10176027708,
    "lat": 59.9321994,
    "lon": 30.4406047
  },
  {
    "type": "node",
    "id": 10184426242,
    "lat": 59.9319079,
    "lon": 30.4403102
  },
  {
    "type": "node",
    "id": 10184426243,
    "lat": 59.9321773,
    "lon": 30.4406421
  },
  {
    "type": "node",
    "id": 10184432024,
    "lat": 59.9319587,
    "lon": 30.4395936
  },
  {
    "type": "node",
    "id": 10184432025,
    "lat": 59.9324896,
    "lon": 30.4402663
  },
  {
    "type": "node",
    "id": 371912985,
    "lat": 59.9315817,
    "lon": 30.4423503
  },
  {
    "type": "node",
    "id": 371912991,
    "lat": 59.9315268,
    "lon": 30.4429658
  },
  {
    "type": "node",
    "id": 371912996,
    "lat": 59.9311375,
    "lon": 30.4424935
  },
  {
    "type": "node",
    "id": 371913002,
    "lat": 59.9313740,
    "lon": 30.4420962
  },
  {
    "type": "node",
    "id": 309943038,
    "lat": 59.9073493,
    "lon": 30.4837807
  },
  {
    "type": "node",
    "id": 309943039,
    "lat": 59.9072239,
    "lon": 30.4833164
  },
  {
    "type": "node",
    "id": 309943041,
    "lat": 59.9072677,
    "lon": 30.4832161
  },
  {
    "type": "node",
    "id": 309943042,
    "lat": 59.9072621,
    "lon": 30.4831119
  },
  {
    "type": "node",
    "id": 309943043,
    "lat": 59.9074751,
    "lon": 30.4828960
  },
  {
    "type": "node",
    "id": 309943044,
    "lat": 59.9075531,
    "lon": 30.4830303
  },
  {
    "type": "node",
    "id": 309943046,
    "lat": 59.9076403,
    "lon": 30.4833713
  },
  {
    "type": "node",
    "id": 309943047,
    "lat": 59.9075750,
    "lon": 30.4835191
  },
  {
    "type": "node",
    "id": 309943048,
    "lat": 59.9075940,
    "lon": 30.4835933
  },
  {
    "type": "node",
    "id": 309943060,
    "lat": 59.9073987,
    "lon": 30.4837304
  },
  {
    "type": "node",
    "id": 1121507729,
    "lat": 59.9074941,
    "lon": 30.4829705
  },
  {
    "type": "node",
    "id": 1727535157,
    "lat": 59.9075330,
    "lon": 30.4829825
  },
  {
    "type": "node",
    "id": 2610053418,
    "lat": 59.9072552,
    "lon": 30.4832845
  },
  {
    "type": "node",
    "id": 2610053423,
    "lat": 59.9072765,
    "lon": 30.4831683
  },
  {
    "type": "node",
    "id": 2610053427,
    "lat": 59.9073307,
    "lon": 30.4837332
  },
  {
    "type": "node",
    "id": 2610053429,
    "lat": 59.9073358,
    "lon": 30.4837281
  },
  {
    "type": "node",
    "id": 2610053436,
    "lat": 59.9074112,
    "lon": 30.4837793
  },
  {
    "type": "node",
    "id": 2610053446,
    "lat": 59.9075045,
    "lon": 30.4830114
  },
  {
    "type": "node",
    "id": 2610053454,
    "lat": 59.9075468,
    "lon": 30.4830367
  },
  {
    "type": "node",
    "id": 2610053463,
    "lat": 59.9076043,
    "lon": 30.4834079
  },
  {
    "type": "node",
    "id": 2610053465,
    "lat": 59.9076208,
    "lon": 30.4834724
  },
  {
    "type": "node",
    "id": 2893571788,
    "lat": 59.9073025,
    "lon": 30.4830710
  },
  {
    "type": "node",
    "id": 2893571791,
    "lat": 59.9074480,
    "lon": 30.4829235
  },
  {
    "type": "node",
    "id": 4202620280,
    "lat": 59.9073428,
    "lon": 30.4837554
  },
  {
    "type": "node",
    "id": 956207591,
    "lat": 59.9983047,
    "lon": 30.2668866
  },
  {
    "type": "node",
    "id": 956207731,
    "lat": 59.9983107,
    "lon": 30.2672597
  },
  {
    "type": "node",
    "id": 956207755,
    "lat": 59.9990086,
    "lon": 30.2667696
  },
  {
    "type": "node",
    "id": 956207785,
    "lat": 59.9989662,
    "lon": 30.2672700
  },
  {
    "type": "node",
    "id": 4015114686,
    "lat": 59.9987008,
    "lon": 30.2668248
  },
  {
    "type": "node",
    "id": 1204454411,
    "lat": 60.0257803,
    "lon": 30.2951281
  },
  {
    "type": "node",
    "id": 1204454479,
    "lat": 60.0256186,
    "lon": 30.2952490
  },
  {
    "type": "node",
    "id": 1204454685,
    "lat": 60.0258004,
    "lon": 30.2952355
  },
  {
    "type": "node",
    "id": 1204454783,
    "lat": 60.0256387,
    "lon": 30.2953564
  },
  {
    "type": "node",
    "id": 10246105647,
    "lat": 60.0256223,
    "lon": 30.2952689
  },
  {
    "type": "node",
    "id": 1129339026,
    "lat": 60.0167306,
    "lon": 30.3141359
  },
  {
    "type": "node",
    "id": 1135827760,
    "lat": 60.0164256,
    "lon": 30.3142972
  },
  {
    "type": "node",
    "id": 1579905646,
    "lat": 60.0164363,
    "lon": 30.3145666
  },
  {
    "type": "node",
    "id": 1579905654,
    "lat": 60.0164409,
    "lon": 30.3145948
  },
  {
    "type": "node",
    "id": 1579905656,
    "lat": 60.0164392,
    "lon": 30.3145368
  },
  {
    "type": "node",
    "id": 1579905659,
    "lat": 60.0164488,
    "lon": 30.3146153
  },
  {
    "type": "node",
    "id": 1579905663,
    "lat": 60.0164464,
    "lon": 30.3145144
  },
  {
    "type": "node",
    "id": 1579905665,
    "lat": 60.0164519,
    "lon": 30.3145058
  },
  {
    "type": "node",
    "id": 1579905698,
    "lat": 60.0165011,
    "lon": 30.3145655
  },
  {
    "type": "node",
    "id": 1579905700,
    "lat": 60.0167140,
    "lon": 30.3144580
  },
  {
    "type": "node",
    "id": 1579905725,
    "lat": 60.0167580,
    "lon": 30.3143532
  },
  {
    "type": "node",
    "id": 1579905735,
    "lat": 60.0167650,
    "lon": 30.3143567
  },
  {
    "type": "node",
    "id": 1579905739,
    "lat": 60.0167752,
    "lon": 30.3143683
  },
  {
    "type": "node",
    "id": 1579905747,
    "lat": 60.0167823,
    "lon": 30.3143938
  },
  {
    "type": "node",
    "id": 1579905750,
    "lat": 60.0167690,
    "lon": 30.3144708
  },
  {
    "type": "node",
    "id": 1579905753,
    "lat": 60.0167847,
    "lon": 30.3144217
  },
  {
    "type": "node",
    "id": 1579905754,
    "lat": 60.0167803,
    "lon": 30.3144510
  },
  {
    "type": "node",
    "id": 1690356463,
    "lat": 60.0164153,
    "lon": 30.3142194
  },
  {
    "type": "node",
    "id": 1690356469,
    "lat": 60.0164546,
    "lon": 30.3141986
  },
  {
    "type": "node",
    "id": 1690356480,
    "lat": 60.0164631,
    "lon": 30.3146248
  },
  {
    "type": "node",
    "id": 1690356484,
    "lat": 60.0164649,
    "lon": 30.3142764
  },
  {
    "type": "node",
    "id": 1690356487,
    "lat": 60.0165060,
    "lon": 30.3146053
  },
  {
    "type": "node",
    "id": 1690356555,
    "lat": 60.0165724,
    "lon": 30.3144838
  },
  {
    "type": "node",
    "id": 1690356569,
    "lat": 60.0165778,
    "lon": 30.3145267
  },
  {
    "type": "node",
    "id": 1690356597,
    "lat": 60.0165964,
    "lon": 30.3144717
  },
  {
    "type": "node",
    "id": 1690356630,
    "lat": 60.0166485,
    "lon": 30.3144454
  },
  {
    "type": "node",
    "id": 1690356632,
    "lat": 60.0166539,
    "lon": 30.3144884
  },
  {
    "type": "node",
    "id": 1690356661,
    "lat": 60.0167184,
    "lon": 30.3144931
  },
  {
    "type": "node",
    "id": 3804910520,
    "lat": 60.0167513,
    "lon": 30.3143001
  }
  
    ]
  }
  